STARLINK-36314          
1 68741U 26082P   26113.35696799 -.00818023  00000+0 -40084-2 0  9992
2 68741  97.2881 335.4809 0000475 164.3150 195.8135 15.84154901  1158
