{
  "norad_id": 68741,
  "name": "STARLINK-36314",
  "history": [
    {
      "epoch": "2026-04-23T08:34:02.034336Z",
      "apogee_km": 319.0236886422035,
      "perigee_km": 318.38708680482614,
      "latitude_deg": 2.5583180939827363e-05,
      "longitude_deg": -4.432944408586335,
      "height_km": 322.191936090387,
      "semi_major_axis_km": 6696.842387723515,
      "eccentricity": 4.753e-05,
      "inclination_deg": 97.2881,
      "raan_deg": 335.4809,
      "arg_perigee_deg": 164.315,
      "mean_anomaly_deg": 195.8135,
      "mean_motion_rev_day": 15.84154901
    }
  ]
}